1 40534U 15013A   21003.23348987 -.00000013  00000-0  00000+0 0  9990
2 40534  54.0747 286.6325 0055057  11.4752 348.6977  2.00556313 42329
1 40534U 15013A   21003.23348987 -.00000013  00000-0  00000-0 0  9991
2 40534  54.0747 286.6325 0055057  11.4752 348.6977  2.00556313 41890
1 40534U 15013A   21004.72927379 -.00000022  00000-0  00000-0 0  9994
2 40534  54.0735 286.5707 0055120  11.5258 348.6448  2.00556197 41920
1 40534U 15013A   21008.71803542 -.00000033  00000-0  00000+0 0  9993
2 40534  54.0706 286.4059 0055300  11.6868 348.4770  2.00555856 42439
1 40534U 15013A   21008.71803542 -.00000033  00000-0  00000-0 0  9994
2 40534  54.0706 286.4059 0055300  11.6868 348.4770  2.00555856 42002
1 40534U 15013A   21013.20542952 -.00000020  00000-0  00000-0 0  9995
2 40534  54.0659 286.2206 0055507  11.9244 348.2588  2.00555703 42096
1 40534U 15013A   21013.70402615 -.00000021  00000-0  00000-0 0  9992
2 40534  54.0654 286.1999 0055533  11.9591 348.2263  2.00555816 42100
1 40534U 15013A   21016.19702034 -.00000036  00000-0  00000+0 0  9991
2 40534  54.0638 286.0969 0055542  11.9687 348.2203  2.00555547 42581
1 40534U 15013A   21016.19702034 -.00000036  00000-0  00000-0 0  9992
2 40534  54.0638 286.0969 0055542  11.9687 348.2203  2.00555547 42154
1 40534U 15013A   21018.19141079 -.00000047  00000-0  00000-0 0  9992
2 40534  54.0623 286.0145 0055696  12.2583 347.9317  2.00555546 42198
1 40534U 15013A   21019.18860471 -.00000048  00000-0  00000-0 0  9997
2 40534  54.0616 285.9732 0055738  12.3376 347.8517  2.00555533 42218
1 40534U 15013A   21020.18580135 -.00000046  00000-0  00000-0 0  9993
2 40534  54.0609 285.9320 0055772  12.3994 347.7895  2.00555429 42231
1 40534U 15013A   21022.18019683 -.00000031  00000-0  00000-0 0  9994
2 40534  54.0594 285.8496 0055854  12.5504 347.6409  2.00555331 42273
1 40534U 15013A   21022.67879014 -.00000025  00000-0  00000-0 0  9993
2 40534  54.0589 285.8290 0055856  12.3836 347.8069  2.00555376 42281
1 40534U 15013A   21023.17739245 -.00000020  00000-0  00000-0 0  9995
2 40534  54.0586 285.8084 0055885  12.4070 347.7851  2.00555264 42297
1 40534U 15013A   21023.67599293 -.00000014  00000-0  00000-0 0  9990
2 40534  54.0582 285.7879 0055905  12.4297 347.7642  2.00555241 42303
1 40534U 15013A   21027.16620405  .00000015  00000-0  00000+0 0  9997
2 40534  54.0556 285.6437 0056018  12.5023 347.7081  2.00555025 42809
1 40534U 15013A   21027.16620405  .00000015  00000-0  00000-0 0  9998
2 40534  54.0556 285.6437 0056018  12.5023 347.7081  2.00555025 42371
1 40534U 15013A   21027.16620574  .00000015  00000-0  00000-0 0  9995
2 40534  54.0558 285.6436 0056032  12.5522 347.6587  2.00554995 42377
1 40534U 15013A   21028.16340874  .00000018  00000-0  00000-0 0  9991
2 40534  54.0551 285.6024 0056063  12.5866 347.6284  2.00554928 42390
1 40534U 15013A   21032.15220207  .00000003  00000-0  00000+0 0  9995
2 40534  54.0518 285.4375 0056216  12.7650 347.4488  2.00554583 42901
1 40534U 15013A   21032.15220207  .00000003  00000-0  00000-0 0  9996
2 40534  54.0518 285.4375 0056216  12.7650 347.4488  2.00554583 42473
1 40534U 15013A   21033.14939522 -.00000002  00000-0  00000-0 0  9993
2 40534  54.0511 285.3962 0056251  12.7941 347.4156  2.00554528 42492
1 40534U 15013A   21036.14098896 -.00000005  00000-0  00000+0 0  9998
2 40534  54.0488 285.2724 0056360  12.9322 347.2706  2.00554237 42986
1 40534U 15013A   21036.14098896 -.00000005  00000-0  00000-0 0  9999
2 40534  54.0488 285.2724 0056360  12.9322 347.2706  2.00554237 42559
1 40534U 15013A   21037.13819303 -.00000001  00000-0  00000-0 0  9999
2 40534  54.0481 285.2312 0056399  13.0244 347.1802  2.00554172 42578
1 40534U 15013A   21038.13539712  .00000004  00000-0  00000-0 0  9995
2 40534  54.0474 285.1900 0056426  13.0537 347.1537  2.00554151 42592
1 40534U 15013A   21039.13260558  .00000007  00000-0  00000-0 0  9998
2 40534  54.0466 285.1487 0056450  13.0736 347.1372  2.00554029 42615
1 40534U 15013A   21039.63120966  .00000008  00000-0  00000-0 0  9992
2 40534  54.0463 285.1281 0056471  13.1096 347.1033  2.00553993 42621
1 40534U 15013A   21040.62841831  .00000007  00000-0  00000-0 0  9993
2 40534  54.0456 285.0868 0056490  13.1164 347.0993  2.00553866 42645
1 40534U 15013A   21042.12421933  .00000000  00000-0  00000-0 0  9990
2 40534  54.0444 285.0250 0056536  13.1984 347.0200  2.00554022 42677
1 40534U 15013A   21045.11582256 -.00000021  00000-0  00000+0 0  9991
2 40534  54.0423 284.9012 0056641  13.3328 346.8813  2.00553877 43168
1 40534U 15013A   21045.11582256 -.00000021  00000-0  00000-0 0  9992
2 40534  54.0423 284.9012 0056641  13.3328 346.8813  2.00553877 42730
1 40534U 15013A   21046.11302216 -.00000024  00000-0  00000-0 0  9992
2 40534  54.0416 284.8600 0056655  13.3691 346.8421  2.00553830 42758
1 40534U 15013A   21048.10742430 -.00000019  00000-0  00000-0 0  9993
2 40534  54.0402 284.7776 0056695  13.4474 346.7596  2.00553736 42791
1 40534U 15013A   21049.10463132 -.00000011  00000-0  00000-0 0  9995
2 40534  54.0395 284.7364 0056716  13.5268 346.6802  2.00553593 42814
1 40534U 15013A   21050.10183724 -.00000001  00000-0  00000-0 0  9992
2 40534  54.0388 284.6951 0056734  13.5962 346.6119  2.00553547 42830
1 40534U 15013A   21051.09903946  .00000009  00000-0  00000-0 0  9994
2 40534  54.0381 284.6539 0056764  13.5885 346.6211  2.00553629 42858
1 40534U 15013A   21051.59764422  .00000015  00000-0  00000-0 0  9990
2 40534  54.0377 284.6333 0056786  13.5702 346.6404  2.00553553 42868
1 40534U 15013A   21053.09345159  .00000028  00000-0  00000+0 0  9992
2 40534  54.0366 284.5714 0056875  13.3127 346.8997  2.00553453 43326
1 40534U 15013A   21053.09345159  .00000028  00000-0  00000-0 0  9993
2 40534  54.0366 284.5714 0056875  13.3127 346.8997  2.00553453 42897
1 40534U 15013A   21054.09066327  .00000034  00000-0  00000-0 0  9998
2 40534  54.0358 284.5302 0056888  13.4005 346.8161  2.00553384 42910
1 40534U 15013A   21060.57248893  .00000015  00000-0  00000+0 0  9996
2 40534  54.0311 284.2620 0057071  13.4160 346.7877  2.00552808 43471
1 40534U 15013A   21060.57248893  .00000015  00000-0  00000-0 0  9997
2 40534  54.0311 284.2620 0057071  13.4160 346.7877  2.00552808 43044
1 40534U 15013A   21061.07110829  .00000013  00000-0  00000+0 0  9997
2 40534  54.0306 284.2412 0056981  14.0714 346.1362  2.00552640 43483
1 40534U 15013A   21061.07110829  .00000013  00000-0  00000-0 0  9998
2 40534  54.0306 284.2412 0056981  14.0714 346.1362  2.00552640 43056
1 40534U 15013A   21062.06830975  .00000010  00000-0  00000-0 0  9996
2 40534  54.0299 284.2000 0057028  14.0834 346.1194  2.00552597 43072
1 40534U 15013A   21063.06551312  .00000011  00000-0  00000-0 0  9993
2 40534  54.0293 284.1587 0057059  14.0938 346.1057  2.00552573 43098
1 40534U 15013A   21064.06272378  .00000013  00000-0  00000-0 0  9998
2 40534  54.0286 284.1174 0057082  14.1245 346.0741  2.00552429 43112
1 40534U 15013A   21066.05714529  .00000020  00000-0  00000-0 0  9996
2 40534  54.0272 284.0348 0057104  14.1987 346.0027  2.00552403 43150
1 40534U 15013A   21067.05435976  .00000021  00000-0  00000-0 0  9994
2 40534  54.0266 283.9936 0057089  14.2443 345.9595  2.00552319 43170
1 40534U 15013A   21068.05157242  .00000018  00000-0  00000-0 0  9998
2 40534  54.0257 283.9523 0057127  14.2843 345.9211  2.00552289 43192
1 40534U 15013A   21069.04878326  .00000013  00000-0  00000-0 0  9996
2 40534  54.0251 283.9111 0057133  14.3050 345.9006  2.00552256 43216
1 40534U 15013A   21069.54738779  .00000009  00000-0  00000-0 0  9993
2 40534  54.0247 283.8905 0057146  14.3148 345.8903  2.00552246 43228
1 40534U 15013A   21072.04040741 -.00000013  00000-0  00000+0 0  9992
2 40534  54.0230 283.7874 0057185  14.3935 345.8042  2.00552117 43705
1 40534U 15013A   21072.04040741 -.00000013  00000-0  00000-0 0  9993
2 40534  54.0230 283.7874 0057185  14.3935 345.8042  2.00552117 43277
1 40534U 15013A   21074.03481968 -.00000020  00000-0  00000-0 0  9992
2 40534  54.0216 283.7050 0057196  14.4662 345.7235  2.00552062 43314
1 40534U 15013A   21077.02645025 -.00000003  00000-0  00000+0 0  9990
2 40534  54.0196 283.5814 0057217  14.5555 345.6282  2.00551879 43803
1 40534U 15013A   21078.02366444  .00000007  00000-0  00000-0 0  9990
2 40534  54.0189 283.5401 0057229  14.5857 345.5986  2.00551813 43397
1 40534U 15013A   21079.02088030  .00000016  00000-0  00000-0 0  9993
2 40534  54.0182 283.4989 0057230  14.6252 345.5609  2.00551754 43411
1 40534U 15013A   21079.51948926  .00000021  00000-0  00000-0 0  9992
2 40534  54.0179 283.4783 0057236  14.6408 345.5465  2.00551705 43425
1 40534U 15013A   21081.51392496  .00000033  00000-0  00000-0 0  9993
2 40534  54.0165 283.3959 0057271  14.6930 345.4997  2.00551573 43469
1 40534U 15013A   21082.01253396  .00000035  00000-0  00000-0 0  9996
2 40534  54.0159 283.3752 0057348  14.6851 345.5086  2.00551505 43476
1 40534U 15013A   21083.00975111  .00000035  00000-0  00000-0 0  9992
2 40534  54.0156 283.3341 0057287  14.7220 345.4728  2.00551400 43498
1 40534U 15013A   21084.00696684  .00000033  00000-0  00000-0 0  9996
2 40534  54.0147 283.2929 0057291  14.7443 345.4501  2.00551278 43516
1 40534U 15013A   21087.49720053  .00000011  00000-0  00000+0 0  9995
2 40534  54.0121 283.1485 0057332  14.8210 345.3580  2.00551054 44017
1 40534U 15013A   21088.49441031  .00000005  00000-0  00000-0 0  9996
2 40534  54.0114 283.1073 0057352  14.8312 345.3416  2.00550910 43609
1 40534U 15013A   21089.99022855  .00000002  00000-0  00000-0 0  9998
2 40534  54.0103 283.0454 0057333  14.8768 345.2892  2.00550768 43634
1 40534U 15013A   21090.48883454  .00000002  00000-0  00000-0 0  9994
2 40534  54.0099 283.0248 0057319  14.8932 345.2714  2.00550781 43645
1 40534U 15013A   21092.48327455  .00000007  00000-0  00000-0 0  9995
2 40534  54.0084 282.9424 0057352  14.9242 345.2400  2.00550538 43681
1 40534U 15013A   21092.98187935  .00000009  00000-0  00000-0 0  9999
2 40534  54.0081 282.9218 0057334  14.9542 345.2110  2.00550691 43691
1 40534U 15013A   21094.47771086  .00000009  00000-0  00000-0 0  9991
2 40534  54.0070 282.8600 0057352  14.9819 345.1862  2.00550660 43723
1 40534U 15013A   21094.97632262  .00000007  00000-0  00000-0 0  9996
2 40534  54.0067 282.8393 0057352  14.9856 345.1831  2.00550570 43736
1 40534U 15013A   21096.97076327 -.00000007  00000-0  00000-0 0  9993
2 40534  54.0052 282.7569 0057361  15.0202 345.1481  2.00550424 43774
1 40534U 15013A   21097.96797991 -.00000017  00000-0  00000-0 0  9991
2 40534  54.0045 282.7157 0057373  15.0394 345.1265  2.00550386 43793
1 40534U 15013A   21101.95684252 -.00000038  00000-0  00000+0 0  9993
2 40534  54.0018 282.5511 0057305  15.1301 345.0207  2.00550209 44306
1 40534U 15013A   21101.95684252 -.00000038  00000-0  00000-0 0  9994
2 40534  54.0018 282.5511 0057305  15.1301 345.0207  2.00550209 43877
1 40534U 15013A   21103.95127917 -.00000027  00000-0  00000-0 0  9994
2 40534  54.0004 282.4689 0057363  15.1582 344.9896  2.00550166 43911
1 40534U 15013A   21105.44711447 -.00000013  00000-0  00000-0 0  9992
2 40534  53.9993 282.4071 0057354  15.1882 344.9611  2.00550080 43947
1 40534U 15013A   21105.94573461 -.00000008  00000-0  00000-0 0  9993
2 40534  53.9990 282.3865 0057422  15.1813 344.9691  2.00549759 43954
1 40534U 15013A   21106.94295792  .00000000  00000-0  00000-0 0  9993
2 40534  53.9983 282.3453 0057448  15.1976 344.9557  2.00549828 43977
1 40534U 15013A   21107.44156879  .00000004  00000-0  00000-0 0  9995
2 40534  53.9980 282.3247 0057453  15.2060 344.9490  2.00549885 43986
1 40534U 15013A   21107.94018135  .00000007  00000-0  00000-0 0  9995
2 40534  53.9976 282.3042 0057428  15.2125 344.9441  2.00549882 43992
1 40534U 15013A   21109.43602338  .00000012  00000-0  00000-0 0  9991
2 40534  53.9965 282.2424 0057437  15.2456 344.9155  2.00549759 44020
1 40534U 15013A   21109.93463739  .00000012  00000-0  00000-0 0  9996
2 40534  53.9961 282.2218 0057433  15.2419 344.9201  2.00549643 44037
1 40534U 15013A   21111.43047530  .00000009  00000-0  00000-0 0  9997
2 40534  53.9952 282.1601 0057347  15.2512 344.9111  2.00549514 44060
1 40534U 15013A   21112.42769753  .00000003  00000-0  00000-0 0  9999
2 40534  53.9945 282.1190 0057349  15.2547 344.9056  2.00549411 44081
1 40534U 15013A   21112.92630676  .00000000  00000-0  00000-0 0  9992
2 40534  53.9941 282.0984 0057344  15.2571 344.9015  2.00549397 44098
1 40534U 15013A   21114.42213459 -.00000011  00000-0  00000-0 0  9998
2 40534  53.9930 282.0365 0057371  15.2644 344.8872  2.00549279 44123
1 40534U 15013A   21117.41378080 -.00000022  00000-0  00000+0 0  9993
2 40534  53.9907 281.9130 0057423  15.2582 344.8804  2.00548896 44617
1 40534U 15013A   21117.41378080 -.00000022  00000-0  00000-0 0  9994
2 40534  53.9907 281.9130 0057423  15.2582 344.8804  2.00548896 44189
1 40534U 15013A   21118.90963592 -.00000019  00000-0  00000+0 0  9992
2 40534  53.9897 281.8512 0057335  15.2881 344.8500  2.00548906 44640
1 40534U 15013A   21118.90963601 -.00000019  00000-0  00000-0 0  9994
2 40534  53.9895 281.8512 0057350  15.2817 344.8563  2.00548868 44213

